ordinal{string},comment{string},originator{string},norad_cat_id{string},object_name{string},object_type{string},classification_type{string},intldes{string},epoch{timestamp},epoch_microseconds{integer},mean_motion{decimal},eccentricity{decimal},inclination{decimal},ra_of_asc_node{decimal},arg_of_pericenter{decimal},mean_anomaly{decimal},ephemeris_type{string},element_set_no{string},rev_at_epoch{integer},bstar{decimal},mean_motion_dot{decimal},mean_motion_ddot{string},file{string},tle_line0{string},tle_line1{string},tle_line2{string},object_id{string},object_number{string},semimajor_axis{decimal},period{decimal},apogee{decimal},perigee{decimal}
1,GENERATED VIA SPACETRACK.ORG API,JSPOC,43797,SKYSAT C12,PAYLOAD,U,18099AR,2019-02-21T21:38:35Z,962368,14.9563074399999998,0.00142150000000000002,97.7565000000000026,126.305700000000002,6.87919999999999998,353.262099999999975,0,999,1196,-9.4733999999999998e-06,-1.63999999999999997e-06,0,2414564,0 SKYSAT C12,1 43797U 18099AR  19052.90180512 -.00000164 +00000-0 -94734-5 0  9995,2 43797 097.7565 126.3057 0014215 006.8792 353.2621 14.95630744011962,2018-099AR,43797,6958.55199999999968,96.2800000000000011,590.308999999999969,570.525999999999954
1,GENERATED VIA SPACETRACK.ORG API,JSPOC,13002,RADIO 6,PAYLOAD,U,81120F,2019-02-21T21:38:55Z,889664,12.1379613400000004,0.00504679999999999972,82.9643999999999977,336.339600000000019,223.642599999999987,202.618300000000005,0,999,64725,0.000276609999999999996,3.59999999999999994e-07,0,2414564,0 RADIO 6,1 13002U 81120F   19052.90203576 +.00000036 +00000-0 +27661-3 0  9991,2 13002 082.9644 336.3396 0050468 223.6426 202.6183 12.13796134647255,1981-120F,13002,7997.81400000000031,118.635999999999996,1660.04299999999989,1579.31600000000003
1,GENERATED VIA SPACETRACK.ORG API,JSPOC,28373,UNISAT 3,PAYLOAD,U,04025H,2019-02-21T21:39:00Z,580320,14.4552756099999993,0.00695430000000000006,98.403499999999994,356.320400000000006,144.97059999999999,215.608900000000006,0,999,77271,2.07740000000000013e-05,2.99999999999999986e-07,0,2414564,0 UNISAT 3,1 28373U 04025H   19052.90209005 +.00000030 +00000-0 +20774-4 0  9993,2 28373 098.4035 356.3204 0069543 144.9706 215.6089 14.45527561772710,2004-025H,28373,7118.43000000000029,99.6170000000000044,789.798999999999978,690.791000000000054
1,GENERATED VIA SPACETRACK.ORG API,JSPOC,25630,JCSAT 6,PAYLOAD,U,99006A,2019-02-21T21:39:11Z,30400,1.00273211999999989,0.000240399999999999989,3.56959999999999988,76.8806000000000012,250.921899999999994,298.507000000000005,0,999,2381,0,-2.25000000000000006e-06,0,2414564,0 JCSAT 6,1 25630U 99006A   19052.90221100 -.00000225 +00000-0 +00000-0 0  9992,2 25630 003.5696 076.8806 0002404 250.9219 298.5070 01.00273212023813,1999-006A,25630,42164.3309999999983,1436.07600000000002,35796.3329999999987,35776.0599999999977
1,GENERATED VIA SPACETRACK.ORG API,JSPOC,42896,FLOCK 2K 09,PAYLOAD,U,17042BZ,2019-02-21T21:39:13Z,170528,15.3927432500000005,0.000955699999999999974,96.954899999999995,302.095500000000015,274.129999999999995,85.8854000000000042,0,999,9020,0.000100779999999999994,3.85400000000000003e-05,0,2414564,0 FLOCK 2K 09,1 42896U 17042BZ  19052.90223577 +.00003854 +00000-0 +10078-3 0  9994,2 42896 096.9549 302.0955 0009557 274.1300 085.8854 15.39274325090200,2017-042BZ,42896,6826.39000000000033,93.5499999999999972,454.778999999999996,441.730999999999995
1,GENERATED VIA SPACETRACK.ORG API,JSPOC,7678,COSMOS 711,PAYLOAD,U,75016A,2019-02-21T21:39:15Z,498144,12.47044234,0.00203399999999999978,74.006699999999995,356.994500000000016,305.806399999999996,109.747,0,999,219,1.61159999999999995e-05,-1.4000000000000001e-07,0,2414564,0 COSMOS 711,1  7678U 75016A   19052.90226271 -.00000014 +00000-0 +16116-4 0  9998,2  7678 074.0067 356.9945 0020340 305.8064 109.7470 12.47044234002191,1975-016A,7678,7855.01900000000023,115.472999999999999,1492.8610000000001,1460.90699999999993
1,GENERATED VIA SPACETRACK.ORG API,JSPOC,24282,CHINASAT 7,PAYLOAD,U,96048A,2019-02-21T21:39:18Z,567072,1.0665716999999999,0.291937200000000008,21.8362000000000016,260.711099999999988,152.100999999999999,239.181099999999986,0,999,9021,0,-5.79999999999999953e-07,0,2414564,0 CHINASAT 7,1 24282U 96048A   19052.90229823 -.00000058 +00000-0 +00000-0 0  9991,2 24282 021.8362 260.7111 2919372 152.1010 239.1811 01.06657170090213,1996-048A,24282,40464.5889999999999,1350.11999999999989,45899.5729999999967,22273.3349999999991
1,GENERATED VIA SPACETRACK.ORG API,JSPOC,28463,EXPRESS AM-1,PAYLOAD,U,04043A,2019-02-21T21:39:18Z,567072,0.991969659999999975,0.00115580000000000001,6.51130000000000031,56.8472999999999971,212.60329999999999,357.407300000000021,0,999,5220,0,-3.17000000000000014e-06,0,2414564,0 EXPRESS AM-1,1 28463U 04043A   19052.90229823 -.00000317 +00000-0 +00000-0 0  9998,2 28463 006.5113 056.8473 0011558 212.6033 357.4073 00.99196966052204,2004-043A,28463,42468.760000000002,1451.65699999999993,36139.7099999999991,36041.538999999997
1,GENERATED VIA SPACETRACK.ORG API,JSPOC,30773,MIDSTAR 1,PAYLOAD,U,07006B,2019-02-21T21:39:32Z,214816,15.4835453300000001,0.00037649999999999999,46.0653000000000006,273.742700000000013,168.555900000000008,191.543399999999991,0,999,67012,2.82219999999999985e-05,1.12900000000000003e-05,0,2414564,0 MIDSTAR 1,1 30773U 07006B   19052.90245619 +.00001129 +00000-0 +28222-4 0  9999,2 30773 046.0653 273.7427 0003765 168.5559 191.5434 15.48354533670122,2007-006B,30773,6799.67600000000039,93.0010000000000048,424.100999999999999,418.980999999999995
1,GENERATED VIA SPACETRACK.ORG API,JSPOC,24957,NSS 5 (INTELSAT 803),PAYLOAD,U,97053A,2019-02-21T21:39:33Z,727680,1.00273539,0.000420300000000000025,5.02170000000000005,66.2873000000000019,290.381700000000023,170.215900000000005,0,999,7838,0,8.50000000000000014e-07,0,2414564,0 NSS 5 (INTELSAT 803),1 24957U 97053A   19052.90247370 +.00000085 +00000-0 +00000-0 0  9993,2 24957 005.0217 066.2873 0004203 290.3817 170.2159 01.00273539078386,1997-053A,24957,42164.239999999998,1436.07099999999991,35803.8260000000009,35768.3830000000016
1,GENERATED VIA SPACETRACK.ORG API,JSPOC,37193,GLOBALSTAR M073,PAYLOAD,U,10054F,2019-02-21T21:39:33Z,318144,12.6226649599999998,7.0500000000000006e-05,52.0050000000000026,278.801600000000008,67.7043000000000035,7.22229999999999972,0,999,38645,6.72650000000000006e-05,-9.1999999999999998e-07,0,2414564,0 GLOBALSTAR M073,1 37193U 10054F   19052.90246896 -.00000092 +00000-0 +67265-4 0  9996,2 37193 052.0050 278.8016 0000705 067.7043 007.2223 12.62266496386454,2010-054F,37193,7791.73999999999978,114.079999999999998,1414.154,1413.05600000000004
1,GENERATED VIA SPACETRACK.ORG API,JSPOC,21890,NAVSTAR 24 (USA 79),PAYLOAD,U,92009A,2019-02-21T21:39:41Z,178816,1.91830133999999997,0.00385900000000000002,54.7239000000000004,263.500800000000027,12.2159999999999993,347.423299999999983,0,999,19482,0,1.69999999999999987e-07,0,2414564,0 NAVSTAR 24 (USA 79),1 21890U 92009A   19052.90255994 +.00000017 +00000-0 +00000-0 0  9998,2 21890 054.7239 263.5008 0038590 012.2160 347.4233 01.91830134194823,1992-009A,21890,27360.494999999999,750.663999999999987,21087.9439999999995,20876.7760000000017
1,GENERATED VIA SPACETRACK.ORG API,JSPOC,43137,AO-92,PAYLOAD,U,18004AC,2019-02-21T21:39:45Z,217152,15.2320731299999998,0.000807600000000000006,97.5019000000000062,120.900499999999994,312.774900000000002,47.2807999999999993,0,999,6172,4.11760000000000001e-05,9.02000000000000004e-06,0,2414564,0 AO-92,1 43137U 18004AC  19052.90260668 +.00000902 +00000-0 +41176-4 0  9999,2 43137 097.5019 120.9005 0008076 312.7749 047.2808 15.23207313061724,2018-004AC,43137,6874.3100000000004,94.5370000000000061,501.726999999999975,490.624000000000024
1,GENERATED VIA SPACETRACK.ORG API,JSPOC,39256,AEHF 3 (USA 246),PAYLOAD,U,13050A,2019-02-21T21:39:48Z,716352,1.0027095399999999,0.000709400000000000005,1.36569999999999991,310.146599999999978,31.0770000000000017,287.513800000000003,0,999,1887,0,-2.04999999999999985e-06,0,2414564,0 AEHF 3 (USA 246),1 39256U 13050A   19052.90264718 -.00000205 +00000-0 +00000-0 0  9996,2 39256 001.3657 310.1466 0007094 031.0770 287.5138 01.00270954018874,2013-050A,39256,42164.9639999999999,1436.10799999999995,35816.7410000000018,35756.9179999999978
1,GENERATED VIA SPACETRACK.ORG API,JSPOC,22219,COSMOS 2219,PAYLOAD,U,92076A,2019-02-21T21:40:08Z,9472,14.1363837100000005,0.00179170000000000002,71.0623999999999967,353.645500000000027,179.0702,181.045700000000011,0,999,35508,-0.000131380000000000006,-2.95000000000000013e-06,0,2414175,0 COSMOS 2219,1 22219U 92076A   19052.90287048 -.00000295  00000-0 -13138-3 0  9992,2 22219  71.0624 353.6455 0017917 179.0702 181.0457 14.13638371355084,1992-076A,22219,7225.08399999999983,101.864000000000004,859.894999999999982,834.004000000000019
1,GENERATED VIA SPACETRACK.ORG API,JSPOC,39086,SARAL,PAYLOAD,U,13009A,2019-02-21T21:40:08Z,204736,14.3203222300000004,6.40999999999999995e-05,98.539599999999993,240.897899999999993,161.399100000000004,198.721599999999995,0,999,31308,1.05819999999999997e-05,-1.49999999999999993e-07,0,2414194,0 SARAL,1 39086U 13009A   19052.90287274 -.00000015  00000-0  10582-4 0  9992,2 39086  98.5396 240.8979 0000641 161.3991 198.7216 14.32032223313089,2013-009A,39086,7163.08200000000033,100.555999999999997,785.407000000000039,784.488000000000056
1,GENERATED VIA SPACETRACK.ORG API,JSPOC,22038,COSMOS 2201,PAYLOAD,U,92042E,2019-02-21T21:40:11Z,892288,12.6170416200000002,0.000772400000000000018,82.5936999999999983,161.008399999999995,241.75200000000001,253.322000000000003,0,999,22529,6.04570000000000007e-05,2.10000000000000001e-07,0,2414564,0 COSMOS 2201,1 22038U 92042E   19052.90291542 +.00000021 +00000-0 +60457-4 0  9990,2 22038 082.5937 161.0084 0007724 241.7520 253.3220 12.61704162225299,1992-042E,22038,7794.05500000000029,114.131,1421.94000000000005,1409.90000000000009
